{
    "links": {
        "self": "http://www.neowsapp.com/rest/v1/neo/3714465?api_key=iIulBulltgU6a56xZRHN4H3l9WmuAYTsLGpBGhQ2"
    },
    "id": "3714465",
    "neo_reference_id": "3714465",
    "name": "(2015 FM118)",
    "designation": "2015 FM118",
    "nasa_jpl_url": "http://ssd.jpl.nasa.gov/sbdb.cgi?sstr=3714465",
    "absolute_magnitude_h": 28.7,
    "estimated_diameter": {
        "kilometers": {
            "estimated_diameter_min": 0.0048367649,
            "estimated_diameter_max": 0.0108153351
        },
        "meters": {
            "estimated_diameter_min": 4.8367648822,
            "estimated_diameter_max": 10.8153350678
        },
        "miles": {
            "estimated_diameter_min": 0.0030054254,
            "estimated_diameter_max": 0.0067203356
        },
        "feet": {
            "estimated_diameter_min": 15.8686516961,
            "estimated_diameter_max": 35.4833839037
        }
    },
    "is_potentially_hazardous_asteroid": false,
    "close_approach_data": [
        {
            "close_approach_date": "2009-06-20",
            "close_approach_date_full": "2009-Jun-20 01:16",
            "epoch_date_close_approach": 1245460560000,
            "relative_velocity": {
                "kilometers_per_second": "17.3168815311",
                "kilometers_per_hour": "62340.7735119125",
                "miles_per_hour": "38736.1322968881"
            },
            "miss_distance": {
                "astronomical": "0.2879295213",
                "lunar": "112.0045837857",
                "kilometers": "43073643.096599631",
                "miles": "26764720.7236356678"
            },
            "orbiting_body": "Earth"
        },
        {
            "close_approach_date": "2012-05-28",
            "close_approach_date_full": "2012-May-28 04:17",
            "epoch_date_close_approach": 1338178620000,
            "relative_velocity": {
                "kilometers_per_second": "9.7882003744",
                "kilometers_per_hour": "35237.521347951",
                "miles_per_hour": "21895.2254175643"
            },
            "miss_distance": {
                "astronomical": "0.0427295787",
                "lunar": "16.6218061143",
                "kilometers": "6392253.959517369",
                "miles": "3971962.4280989322"
            },
            "orbiting_body": "Earth"
        },
        {
            "close_approach_date": "2015-03-27",
            "close_approach_date_full": "2015-Mar-27 18:18",
            "epoch_date_close_approach": 1427480280000,
            "relative_velocity": {
                "kilometers_per_second": "9.4801029758",
                "kilometers_per_hour": "34128.3707130395",
                "miles_per_hour": "21206.0423466661"
            },
            "miss_distance": {
                "astronomical": "0.0039352379",
                "lunar": "1.5308075431",
                "kilometers": "588703.207783273",
                "miles": "365803.2107962474"
            },
            "orbiting_body": "Moon"
        },
        {
            "close_approach_date": "2015-03-28",
            "close_approach_date_full": "2015-Mar-28 02:49",
            "epoch_date_close_approach": 1427510940000,
            "relative_velocity": {
                "kilometers_per_second": "8.8318192945",
                "kilometers_per_hour": "31794.5494601082",
                "miles_per_hour": "19755.89657981"
            },
            "miss_distance": {
                "astronomical": "0.0023768693",
                "lunar": "0.9246021577",
                "kilometers": "355574.584548391",
                "miles": "220943.8015381558"
            },
            "orbiting_body": "Earth"
        }
    ],
    "orbital_data": {
        "orbit_id": "4",
        "orbit_determination_date": "2017-04-06 08:34:45",
        "first_observation_date": "2015-03-25",
        "last_observation_date": "2015-03-28",
        "data_arc_in_days": 3,
        "observations_used": 36,
        "orbit_uncertainty": "7",
        "minimum_orbit_intersection": ".00114096",
        "jupiter_tisserand_invariant": "3.644",
        "epoch_osculation": "2459000.5",
        "eccentricity": ".5201147865344616",
        "semi_major_axis": "2.016332547889106",
        "inclination": "1.46766133020078",
        "ascending_node_longitude": "185.0040126829976",
        "orbital_period": "1045.783216780898",
        "perihelion_distance": ".9676081751612766",
        "perihelion_argument": "27.12645680572613",
        "aphelion_distance": "3.065056920616936",
        "perihelion_time": "2459221.206435666121",
        "mean_anomaly": "284.0241040735213",
        "mean_motion": ".344239603603644",
        "equinox": "J2000",
        "orbit_class": {
            "orbit_class_type": "APO",
            "orbit_class_description": "Near-Earth asteroid orbits which cross the Earth’s orbit similar to that of 1862 Apollo",
            "orbit_class_range": "a (semi-major axis) > 1.0 AU; q (perihelion) < 1.017 AU"
        }
    },
    "is_sentry_object": false
}